[{"OBJECT_NAME":"STARLINK-30544","OBJECT_ID":"2023-158E","EPOCH":"2025-11-07T09:09:14.787360","MEAN_MOTION":15.02535478,"ECCENTRICITY":0.0001194,"INCLINATION":43.0036,"RA_OF_ASC_NODE":334.8647,"ARG_OF_PERICENTER":265.3434,"MEAN_ANOMALY":94.7272,"EPHEMERIS_TYPE":0,"CLASSIFICATION_TYPE":"U","NORAD_CAT_ID":58055,"ELEMENT_SET_NO":999,"REV_AT_EPOCH":11513,"BSTAR":6.5201e-6,"MEAN_MOTION_DOT":-1.16e-6,"MEAN_MOTION_DDOT":0},{"OBJECT_NAME":"STARLINK-30553","OBJECT_ID":"2023-158F","EPOCH":"2025-11-07T18:57:59.474016","MEAN_MOTION":15.0253819,"ECCENTRICITY":0.0001395,"INCLINATION":43.0037,"RA_OF_ASC_NODE":332.7727,"ARG_OF_PERICENTER":274.0047,"MEAN_ANOMALY":86.0636,"EPHEMERIS_TYPE":0,"CLASSIFICATION_TYPE":"U","NORAD_CAT_ID":58056,"ELEMENT_SET_NO":999,"REV_AT_EPOCH":11519,"BSTAR":6.9382e-5,"MEAN_MOTION_DOT":7.34e-6,"MEAN_MOTION_DDOT":0},{"OBJECT_NAME":"STARLINK-30541","OBJECT_ID":"2023-158G","EPOCH":"2025-11-07T11:04:08.888736","MEAN_MOTION":15.02538996,"ECCENTRICITY":0.0001495,"INCLINATION":43.0049,"RA_OF_ASC_NODE":334.606,"ARG_OF_PERICENTER":274.6499,"MEAN_ANOMALY":85.4173,"EPHEMERIS_TYPE":0,"CLASSIFICATION_TYPE":"U","NORAD_CAT_ID":58057,"ELEMENT_SET_NO":999,"REV_AT_EPOCH":11514,"BSTAR":4.8216e-5,"MEAN_MOTION_DOT":4.48e-6,"MEAN_MOTION_DDOT":0},{"OBJECT_NAME":"STARLINK-30573","OBJECT_ID":"2023-158H","EPOCH":"2025-11-07T10:54:34.466112","MEAN_MOTION":15.02504627,"ECCENTRICITY":0.0001031,"INCLINATION":43.0054,"RA_OF_ASC_NODE":334.5561,"ARG_OF_PERICENTER":271.8019,"MEAN_ANOMALY":88.2705,"EPHEMERIS_TYPE":0,"CLASSIFICATION_TYPE":"U","NORAD_CAT_ID":58058,"ELEMENT_SET_NO":999,"REV_AT_EPOCH":11514,"BSTAR":0.00044482,"MEAN_MOTION_DOT":5.805e-5,"MEAN_MOTION_DDOT":0},{"OBJECT_NAME":"STARLINK-30582","OBJECT_ID":"2023-158J","EPOCH":"2025-11-07T18:38:49.299936","MEAN_MOTION":15.02531138,"ECCENTRICITY":0.0001299,"INCLINATION":43.0049,"RA_OF_ASC_NODE":332.6759,"ARG_OF_PERICENTER":265.3271,"MEAN_ANOMALY":94.7423,"EPHEMERIS_TYPE":0,"CLASSIFICATION_TYPE":"U","NORAD_CAT_ID":58059,"ELEMENT_SET_NO":999,"REV_AT_EPOCH":11519,"BSTAR":-1.0739e-5,"MEAN_MOTION_DOT":-3.49e-6,"MEAN_MOTION_DDOT":0},{"OBJECT_NAME":"STARLINK-30558","OBJECT_ID":"2023-158K","EPOCH":"2025-11-07T18:00:37.863072","MEAN_MOTION":15.02532286,"ECCENTRICITY":0.0001269,"INCLINATION":43.0044,"RA_OF_ASC_NODE":333.3201,"ARG_OF_PERICENTER":272.4031,"MEAN_ANOMALY":87.6666,"EPHEMERIS_TYPE":0,"CLASSIFICATION_TYPE":"U","NORAD_CAT_ID":58060,"ELEMENT_SET_NO":999,"REV_AT_EPOCH":11518,"BSTAR":7.6634e-6,"MEAN_MOTION_DOT":-1.0e-6,"MEAN_MOTION_DDOT":0},{"OBJECT_NAME":"STARLINK-30579","OBJECT_ID":"2023-158L","EPOCH":"2025-11-07T16:59:08.666016","MEAN_MOTION":15.02566162,"ECCENTRICITY":0.0001165,"INCLINATION":42.9963,"RA_OF_ASC_NODE":307.7008,"ARG_OF_PERICENTER":275.1012,"MEAN_ANOMALY":84.9698,"EPHEMERIS_TYPE":0,"CLASSIFICATION_TYPE":"U","NORAD_CAT_ID":58061,"ELEMENT_SET_NO":999,"REV_AT_EPOCH":11547,"BSTAR":0.00032384,"MEAN_MOTION_DOT":4.177e-5,"MEAN_MOTION_DDOT":0},{"OBJECT_NAME":"STARLINK-30588","OBJECT_ID":"2023-158M","EPOCH":"2025-11-07T18:29:13.354944","MEAN_MOTION":15.02537141,"ECCENTRICITY":0.0001212,"INCLINATION":43.0036,"RA_OF_ASC_NODE":332.6213,"ARG_OF_PERICENTER":274.1143,"MEAN_ANOMALY":85.956,"EPHEMERIS_TYPE":0,"CLASSIFICATION_TYPE":"U","NORAD_CAT_ID":58062,"ELEMENT_SET_NO":999,"REV_AT_EPOCH":11519,"BSTAR":0.00012026,"MEAN_MOTION_DOT":1.421e-5,"MEAN_MOTION_DDOT":0},{"OBJECT_NAME":"STARLINK-30585","OBJECT_ID":"2023-158N","EPOCH":"2025-11-07T18:14:52.988064","MEAN_MOTION":15.02454138,"ECCENTRICITY":7.87e-5,"INCLINATION":43.0025,"RA_OF_ASC_NODE":332.5512,"ARG_OF_PERICENTER":283.3894,"MEAN_ANOMALY":76.686,"EPHEMERIS_TYPE":0,"CLASSIFICATION_TYPE":"U","NORAD_CAT_ID":58063,"ELEMENT_SET_NO":999,"REV_AT_EPOCH":11519,"BSTAR":0.0011441,"MEAN_MOTION_DOT":0.00015252,"MEAN_MOTION_DDOT":0},{"OBJECT_NAME":"STARLINK-30587","OBJECT_ID":"2023-158P","EPOCH":"2025-11-06T12:15:10.198944","MEAN_MOTION":15.02546,"ECCENTRICITY":0.00011982,"INCLINATION":43.0032,"RA_OF_ASC_NODE":339.5121,"ARG_OF_PERICENTER":272.7346,"MEAN_ANOMALY":87.3359,"EPHEMERIS_TYPE":0,"CLASSIFICATION_TYPE":"U","NORAD_CAT_ID":58064,"ELEMENT_SET_NO":999,"REV_AT_EPOCH":11500,"BSTAR":0.00011998152,"MEAN_MOTION_DOT":1.418e-5,"MEAN_MOTION_DDOT":0},{"OBJECT_NAME":"STARLINK-30576","OBJECT_ID":"2023-158Q","EPOCH":"2025-11-07T11:13:44.851008","MEAN_MOTION":15.0255084,"ECCENTRICITY":0.0001303,"INCLINATION":43.003,"RA_OF_ASC_NODE":334.6564,"ARG_OF_PERICENTER":267.1615,"MEAN_ANOMALY":92.9078,"EPHEMERIS_TYPE":0,"CLASSIFICATION_TYPE":"U","NORAD_CAT_ID":58065,"ELEMENT_SET_NO":999,"REV_AT_EPOCH":11514,"BSTAR":-0.00039273,"MEAN_MOTION_DOT":-5.507e-5,"MEAN_MOTION_DDOT":0},{"OBJECT_NAME":"STARLINK-30571","OBJECT_ID":"2023-158R","EPOCH":"2025-11-05T11:50:29.745312","MEAN_MOTION":15.0253494,"ECCENTRICITY":0.00013,"INCLINATION":43.0046,"RA_OF_ASC_NODE":344.7792,"ARG_OF_PERICENTER":265.0859,"MEAN_ANOMALY":94.9835,"EPHEMERIS_TYPE":0,"CLASSIFICATION_TYPE":"U","NORAD_CAT_ID":58066,"ELEMENT_SET_NO":999,"REV_AT_EPOCH":11485,"BSTAR":6.0874891e-5,"MEAN_MOTION_DOT":6.19e-6,"MEAN_MOTION_DDOT":0},{"OBJECT_NAME":"STARLINK-30567","OBJECT_ID":"2023-158S","EPOCH":"2025-11-07T17:57:26.399808","MEAN_MOTION":15.02535906,"ECCENTRICITY":0.0001203,"INCLINATION":43.004,"RA_OF_ASC_NODE":333.3018,"ARG_OF_PERICENTER":266.5611,"MEAN_ANOMALY":93.5094,"EPHEMERIS_TYPE":0,"CLASSIFICATION_TYPE":"U","NORAD_CAT_ID":58067,"ELEMENT_SET_NO":999,"REV_AT_EPOCH":11518,"BSTAR":-0.00031949,"MEAN_MOTION_DOT":-4.517e-5,"MEAN_MOTION_DDOT":0},{"OBJECT_NAME":"STARLINK-30569","OBJECT_ID":"2023-158T","EPOCH":"2025-11-07T18:24:25.654176","MEAN_MOTION":15.02533194,"ECCENTRICITY":7.17e-5,"INCLINATION":43.0051,"RA_OF_ASC_NODE":332.5962,"ARG_OF_PERICENTER":279.3307,"MEAN_ANOMALY":80.7454,"EPHEMERIS_TYPE":0,"CLASSIFICATION_TYPE":"U","NORAD_CAT_ID":58068,"ELEMENT_SET_NO":999,"REV_AT_EPOCH":11519,"BSTAR":2.8958e-5,"MEAN_MOTION_DOT":1.88e-6,"MEAN_MOTION_DDOT":0},{"OBJECT_NAME":"STARLINK-30480","OBJECT_ID":"2023-158U","EPOCH":"2025-11-07T18:14:38.211936","MEAN_MOTION":15.27561725,"ECCENTRICITY":0.0003679,"INCLINATION":43.0051,"RA_OF_ASC_NODE":213.4209,"ARG_OF_PERICENTER":295.3789,"MEAN_ANOMALY":64.6682,"EPHEMERIS_TYPE":0,"CLASSIFICATION_TYPE":"U","NORAD_CAT_ID":58069,"ELEMENT_SET_NO":999,"REV_AT_EPOCH":11659,"BSTAR":-6.7275e-5,"MEAN_MOTION_DOT":-2.113e-5,"MEAN_MOTION_DDOT":0},{"OBJECT_NAME":"STARLINK-30532","OBJECT_ID":"2023-158V","EPOCH":"2025-11-07T18:19:37.860096","MEAN_MOTION":15.02536479,"ECCENTRICITY":0.0001111,"INCLINATION":43.0051,"RA_OF_ASC_NODE":332.5721,"ARG_OF_PERICENTER":272.1826,"MEAN_ANOMALY":87.8889,"EPHEMERIS_TYPE":0,"CLASSIFICATION_TYPE":"U","NORAD_CAT_ID":58070,"ELEMENT_SET_NO":999,"REV_AT_EPOCH":11519,"BSTAR":1.1456e-5,"MEAN_MOTION_DOT":-4.9e-7,"MEAN_MOTION_DDOT":0},{"OBJECT_NAME":"STARLINK-30513","OBJECT_ID":"2023-158W","EPOCH":"2025-11-07T17:27:17.421408","MEAN_MOTION":15.31820611,"ECCENTRICITY":0.0005523,"INCLINATION":43.0016,"RA_OF_ASC_NODE":79.54,"ARG_OF_PERICENTER":342.7608,"MEAN_ANOMALY":17.3057,"EPHEMERIS_TYPE":0,"CLASSIFICATION_TYPE":"U","NORAD_CAT_ID":58071,"ELEMENT_SET_NO":999,"REV_AT_EPOCH":11813,"BSTAR":0.0034498,"MEAN_MOTION_DOT":0.00109593,"MEAN_MOTION_DDOT":0},{"OBJECT_NAME":"STARLINK-30506","OBJECT_ID":"2023-158X","EPOCH":"2025-11-07T18:10:02.536320","MEAN_MOTION":15.02537348,"ECCENTRICITY":9.95e-5,"INCLINATION":43.0037,"RA_OF_ASC_NODE":332.5213,"ARG_OF_PERICENTER":278.2203,"MEAN_ANOMALY":81.8527,"EPHEMERIS_TYPE":0,"CLASSIFICATION_TYPE":"U","NORAD_CAT_ID":58072,"ELEMENT_SET_NO":999,"REV_AT_EPOCH":11519,"BSTAR":-8.3152e-6,"MEAN_MOTION_DOT":-3.16e-6,"MEAN_MOTION_DDOT":0},{"OBJECT_NAME":"STARLINK-30604","OBJECT_ID":"2023-160A","EPOCH":"2025-11-07T13:33:41.544288","MEAN_MOTION":15.02518266,"ECCENTRICITY":0.0001292,"INCLINATION":42.9999,"RA_OF_ASC_NODE":24.1613,"ARG_OF_PERICENTER":10.487,"MEAN_ANOMALY":349.5999,"EPHEMERIS_TYPE":0,"CLASSIFICATION_TYPE":"U","NORAD_CAT_ID":58075,"ELEMENT_SET_NO":999,"REV_AT_EPOCH":11454,"BSTAR":8.074e-5,"MEAN_MOTION_DOT":8.87e-6,"MEAN_MOTION_DDOT":0},{"OBJECT_NAME":"STARLINK-30500","OBJECT_ID":"2023-160B","EPOCH":"2025-11-07T13:47:54.796128","MEAN_MOTION":15.02531327,"ECCENTRICITY":0.0001287,"INCLINATION":43.0051,"RA_OF_ASC_NODE":23.3677,"ARG_OF_PERICENTER":277.3263,"MEAN_ANOMALY":82.7433,"EPHEMERIS_TYPE":0,"CLASSIFICATION_TYPE":"U","NORAD_CAT_ID":58076,"ELEMENT_SET_NO":999,"REV_AT_EPOCH":11455,"BSTAR":-6.7962e-5,"MEAN_MOTION_DOT":-1.121e-5,"MEAN_MOTION_DDOT":0},{"OBJECT_NAME":"STARLINK-30613","OBJECT_ID":"2023-160C","EPOCH":"2025-11-07T13:24:06.732000","MEAN_MOTION":15.02524248,"ECCENTRICITY":0.0001567,"INCLINATION":43.0051,"RA_OF_ASC_NODE":24.1068,"ARG_OF_PERICENTER":278.9587,"MEAN_ANOMALY":81.1078,"EPHEMERIS_TYPE":0,"CLASSIFICATION_TYPE":"U","NORAD_CAT_ID":58077,"ELEMENT_SET_NO":999,"REV_AT_EPOCH":11455,"BSTAR":-0.00010299,"MEAN_MOTION_DOT":-1.594e-5,"MEAN_MOTION_DDOT":0},{"OBJECT_NAME":"STARLINK-30597","OBJECT_ID":"2023-160D","EPOCH":"2025-11-07T13:38:28.870080","MEAN_MOTION":15.02541511,"ECCENTRICITY":0.0001738,"INCLINATION":43.0046,"RA_OF_ASC_NODE":24.1578,"ARG_OF_PERICENTER":273.0171,"MEAN_ANOMALY":87.0472,"EPHEMERIS_TYPE":0,"CLASSIFICATION_TYPE":"U","NORAD_CAT_ID":58078,"ELEMENT_SET_NO":999,"REV_AT_EPOCH":11454,"BSTAR":-6.2278e-5,"MEAN_MOTION_DOT":-1.045e-5,"MEAN_MOTION_DDOT":0},{"OBJECT_NAME":"STARLINK-30598","OBJECT_ID":"2023-160E","EPOCH":"2025-11-07T13:19:16.776192","MEAN_MOTION":15.02548458,"ECCENTRICITY":0.0001157,"INCLINATION":43.0047,"RA_OF_ASC_NODE":24.0813,"ARG_OF_PERICENTER":280.7679,"MEAN_ANOMALY":79.3033,"EPHEMERIS_TYPE":0,"CLASSIFICATION_TYPE":"U","NORAD_CAT_ID":58079,"ELEMENT_SET_NO":999,"REV_AT_EPOCH":11454,"BSTAR":8.2547e-5,"MEAN_MOTION_DOT":9.12e-6,"MEAN_MOTION_DDOT":0}]
